NORAD_CAT_ID,OBJECT_NAME,OBJECT_TYPE,EPOCH,MEAN_MOTION,ECCENTRICITY,INCLINATION,RA_OF_ASC_NODE,ARG_OF_PERICENTER,MEAN_ANOMALY,BSTAR,MEAN_MOTION_DOT,MEAN_MOTION_DDOT,TLE_LINE0,TLE_LINE1,TLE_LINE2,SEMIMAJOR_AXIS,PERIOD,APOGEE,PERIGEE,DECAYED
54172.0,STARLINK-5117,PAYLOAD,2023-12-13 10:58:13,15.08842121,0.0001275,53.218,72.7958,78.0316,282.0819,8.5925e-05,1.08e-05,0.0,0 STARLINK-5117,1 54172U 22141R   23347.45709536  .00001080  00000-0  85925-4 0  9999,2 54172  53.2180  72.7958 0001275  78.0316 282.0819 15.08842121 62480,6917.874,95.437,540.621,538.857,0.0
54172.0,STARLINK-5117,PAYLOAD,2023-12-13 12:33:35,15.08845105,0.0001274,53.2181,72.4979,81.0336,279.08,0.00011034,1.469e-05,0.0,0 STARLINK-5117,1 54172U 22141R   23347.52333269  .00001469  00000-0  11034-3 0  9993,2 54172  53.2181  72.4979 0001274  81.0336 279.0800 15.08845105 62498,6917.865,95.437,540.611,538.848,0.0
54172.0,STARLINK-5117,PAYLOAD,2023-12-14 10:49:00,15.08840125,0.0001303,53.218,68.3344,83.0225,277.0915,4.2451e-05,3.88e-06,0.0,0 STARLINK-5117,1 54172U 22141R   23348.45069734  .00000388  00000-0  42451-4 0  9996,2 54172  53.2180  68.3344 0001303  83.0225 277.0915 15.08840125 62637,6917.88,95.438,540.646,538.844,0.0
54172.0,STARLINK-5117,PAYLOAD,2023-12-15 12:15:11,15.08805937,0.0001478,53.2186,63.5757,88.6387,271.4775,0.00044791,6.841e-05,0.0,0 STARLINK-5117,1 54172U 22141R   23349.51054693  .00006841  00000-0  44791-3 0  9990,2 54172  53.2186  63.5757 0001478  88.6387 271.4775 15.08805937 62792,6917.985,95.44,540.872,538.827,0.0
54172.0,STARLINK-5117,PAYLOAD,2023-12-16 12:05:58,15.08821053,0.0001523,53.2186,59.1143,88.7061,271.4106,0.00036749,5.562e-05,0.0,0 STARLINK-5117,1 54172U 22141R   23350.50414403  .00005562  00000-0  36749-3 0  9993,2 54172  53.2186  59.1143 0001523  88.7061 271.4106 15.08821053 62945,6917.938,95.439,540.857,538.75,0.0
54172.0,STARLINK-5117,PAYLOAD,2023-12-17 11:56:45,15.08837012,0.0001598,53.2192,54.6537,77.0622,283.0549,6.5976e-05,7.62e-06,0.0,0 STARLINK-5117,1 54172U 22141R   23351.49774748  .00000762  00000-0  65976-4 0  9995,2 54172  53.2192  54.6537 0001598  77.0622 283.0549 15.08837012 63094,6917.89,95.438,540.86,538.649,0.0
54172.0,STARLINK-5117,PAYLOAD,2023-12-18 11:47:31,15.08830526,0.0001838,53.22,50.1905,78.9629,281.157,0.00053861,8.292e-05,0.0,0 STARLINK-5117,1 54172U 22141R   23352.49134052  .00008292  00000-0  53861-3 0  9999,2 54172  53.2200  50.1905 0001838  78.9629 281.1570 15.08830526 63241,6917.909,95.438,541.046,538.503,0.0
54172.0,STARLINK-5117,PAYLOAD,2023-12-19 10:02:55,15.08844077,0.0001609,53.2181,46.0322,82.895,277.2225,7.1063e-05,8.43e-06,0.0,0 STARLINK-5117,1 54172U 22141R   23353.41870176  .00000843  00000-0  71063-4 0  9995,2 54172  53.2181  46.0322 0001609  82.8950 277.2225 15.08844077 63387,6917.868,95.437,540.846,538.62,0.0
54172.0,STARLINK-5117,PAYLOAD,2023-12-20 09:53:43,15.08834424,0.000155,53.2171,41.5764,87.8849,272.232,-0.00014538,-2.601e-05,0.0,0 STARLINK-5117,1 54172U 22141R   23354.41231025 -.00002601  00000-0 -14538-3 0  9999,2 54172  53.2171  41.5764 0001550  87.8849 272.2320 15.08834424 63536,6917.897,95.438,540.835,538.69,0.0
54172.0,STARLINK-5117,PAYLOAD,2023-12-21 08:09:07,15.08847439,0.0001497,53.2175,37.4123,90.7317,269.3846,0.00020728,3.013e-05,0.0,0 STARLINK-5117,1 54172U 22141R   23355.33966535  .00003013  00000-0  20728-3 0  9996,2 54172  53.2175  37.4123 0001497  90.7317 269.3846 15.08847439 63671,6917.858,95.437,540.758,538.687,0.0
54172.0,STARLINK-5117,PAYLOAD,2023-12-22 07:59:54,15.088417,0.0001508,53.2175,32.9538,94.5868,265.5297,0.00011652,1.567e-05,0.0,0 STARLINK-5117,1 54172U 22141R   23356.33326996  .00001567  00000-0  11652-3 0  9996,2 54172  53.2175  32.9538 0001508  94.5868 265.5297 15.08841700 63827,6917.875,95.437,540.783,538.697,0.0
54172.0,STARLINK-5117,PAYLOAD,2023-12-23 03:04:32,15.08826349,0.0001865,53.2191,29.3881,39.702,320.4109,0.00029674,4.436e-05,0.0,0 STARLINK-5117,1 54172U 22141R   23357.12815936  .00004436  00000-0  29674-3 0  9992,2 54172  53.2191  29.3881 0001865  39.7020 320.4109 15.08826349 63941,6917.922,95.438,541.077,538.497,0.0
54172.0,STARLINK-5117,PAYLOAD,2023-12-23 07:50:42,15.08832677,0.0001586,53.2163,28.4864,66.2132,293.9027,7.8893e-05,9.68e-06,0.0,0 STARLINK-5117,1 54172U 22141R   23357.32687532  .00000968  00000-0  78893-4 0  9997,2 54172  53.2163  28.4864 0001586  66.2132 293.9027 15.08832677 63977,6917.903,95.438,540.865,538.671,0.0
54172.0,STARLINK-5117,PAYLOAD,2023-12-24 09:16:52,15.08821309,0.0001653,53.2176,23.7327,70.553,289.5641,0.00045243,6.916e-05,0.0,0 STARLINK-5117,1 54172U 22141R   23358.38671960  .00006916  00000-0  45243-3 0  9993,2 54172  53.2176  23.7327 0001653  70.5530 289.5641 15.08821309 64130,6917.938,95.439,540.946,538.659,0.0
54172.0,STARLINK-5117,PAYLOAD,2023-12-24 12:27:38,15.088413,0.0001525,53.217,23.1312,78.5938,281.5226,0.00020872,3.035e-05,0.0,0 STARLINK-5117,1 54172U 22141R   23358.51919185  .00003035  00000-0  20872-3 0  9992,2 54172  53.2170  23.1312 0001525  78.5938 281.5226 15.08841300 64156,6917.876,95.437,540.796,538.686,0.0
54172.0,STARLINK-5117,PAYLOAD,2023-12-24 23:35:20,15.08836497,0.0001514,53.2165,21.0481,67.0779,293.0373,9.4278e-05,1.213e-05,0.0,0 STARLINK-5117,1 54172U 22141R   23358.98287619  .00001213  00000-0  94278-4 0  9991,2 54172  53.2165  21.0481 0001514  67.0779 293.0373 15.08836497 64228,6917.891,95.438,540.803,538.709,0.0
54172.0,STARLINK-5117,PAYLOAD,2023-12-25 10:43:01,15.08847294,0.0001571,53.217,18.968,106.4194,253.697,0.00025057,3.703e-05,0.0,0 STARLINK-5117,1 54172U 22141R   23359.44654873  .00003703  00000-0  25057-3 0  9997,2 54172  53.2170  18.9680 0001571 106.4194 253.6970 15.08847294 64291,6917.858,95.437,540.81,538.636,0.0
54172.0,STARLINK-5117,PAYLOAD,2023-12-25 23:26:07,15.0883788,0.0001556,53.2175,16.5917,102.1618,257.9548,-7.3058e-05,-1.45e-05,0.0,0 STARLINK-5117,1 54172U 22141R   23359.97647581 -.00001450  00000-0 -73058-4 0  9997,2 54172  53.2175  16.5917 0001556 102.1618 257.9548 15.08837880 64377,6917.887,95.438,540.828,538.675,0.0
54172.0,STARLINK-5117,PAYLOAD,2023-12-26 10:33:49,15.08838835,0.0001602,53.2172,14.5076,99.3418,260.7756,-6.342e-06,-3.89e-06,0.0,0 STARLINK-5117,1 54172U 22141R   23360.44015656 -.00000389  00000-0 -63420-5 0  9996,2 54172  53.2172  14.5076 0001602  99.3418 260.7756 15.08838835 64447,6917.884,95.438,540.857,538.641,0.0
54172.0,STARLINK-5117,PAYLOAD,2023-12-27 10:24:36,15.08850248,0.0001752,53.2171,10.0478,115.4039,244.7135,0.00023801,3.503e-05,0.0,0 STARLINK-5117,1 54172U 22141R   23361.43375188  .00003503  00000-0  23801-3 0  9991,2 54172  53.2171  10.0478 0001752 115.4039 244.7135 15.08850248 64599,6917.849,95.437,540.926,538.502,0.0
54172.0,STARLINK-5117,PAYLOAD,2023-12-28 03:53:50,15.08843063,0.0001909,53.2158,6.7767,111.8987,248.2208,0.00019401,2.801e-05,0.0,0 STARLINK-5117,1 54172U 22141R   23362.16239579  .00002801  00000-0  19401-3 0  9996,2 54172  53.2158   6.7767 0001909 111.8987 248.2208 15.08843063 64703,6917.871,95.437,541.057,538.415,0.0
54172.0,STARLINK-5117,PAYLOAD,2023-12-28 07:04:37,15.08844261,0.0001725,53.2172,6.1843,109.5457,250.5721,0.00024061,3.544e-05,0.0,0 STARLINK-5117,1 54172U 22141R   23362.29487684  .00003544  00000-0  24061-3 0  9995,2 54172  53.2172   6.1843 0001725 109.5457 250.5721 15.08844261 64729,6917.867,95.437,540.926,538.539,0.0
54172.0,STARLINK-5117,PAYLOAD,2023-12-29 03:44:38,15.08839574,0.0001655,53.2169,2.32,97.2359,262.8822,-6.1777e-05,-1.271e-05,0.0,0 STARLINK-5117,1 54172U 22141R   23363.15600000 -.00001271  00000-0 -61777-4 0  9993,2 54172  53.2169   2.3200 0001655  97.2359 262.8822 15.08839574 64859,6917.882,95.438,540.892,538.602,0.0
54172.0,STARLINK-5117,PAYLOAD,2023-12-29 06:55:24,15.08840529,0.0001678,53.2173,1.7254,96.5965,263.5218,-3.7516e-05,-8.85e-06,0.0,0 STARLINK-5117,1 54172U 22141R   23363.28847984 -.00000885  00000-0 -37516-4 0  9995,2 54172  53.2173   1.7254 0001678  96.5965 263.5218 15.08840529 64877,6917.879,95.438,540.905,538.583,0.0
54172.0,STARLINK-5117,PAYLOAD,2023-12-30 06:46:11,15.08842589,0.000171,53.218,357.2657,107.7271,252.3908,0.00010122,1.323e-05,0.0,0 STARLINK-5117,1 54172U 22141R   23364.28207829  .00001323  00000-0  10122-3 0  9993,2 54172  53.2180 357.2657 0001710 107.7271 252.3908 15.08842589 65021,6917.872,95.437,540.92,538.555,0.0
54172.0,STARLINK-5117,PAYLOAD,2023-12-31 03:26:13,15.08833206,0.0001601,53.2175,353.397,102.4335,257.6836,5.0373e-05,5.14e-06,0.0,0 STARLINK-5117,1 54172U 22141R   23365.14320726  .00000514  00000-0  50373-4 0  9995,2 54172  53.2175 353.3970 0001601 102.4335 257.6836 15.08833206 65150,6917.901,95.438,540.874,538.659,0.0
54172.0,STARLINK-5117,PAYLOAD,2023-12-31 05:01:36,15.08833813,0.0001603,53.2176,353.0998,102.5959,257.5212,5.4773e-05,5.84e-06,0.0,0 STARLINK-5117,1 54172U 22141R   23365.20944755  .00000584  00000-0  54773-4 0  9991,2 54172  53.2176 353.0998 0001603 102.5959 257.5212 15.08833813 65165,6917.899,95.438,540.873,538.655,0.0
54172.0,STARLINK-5117,PAYLOAD,2024-01-01 08:03:09,15.08846223,0.0001554,53.2175,348.0443,90.7564,269.3606,8.8476e-05,1.121e-05,0.0,0 STARLINK-5117,1 54172U 22141R   24001.33552104  .00001121  00000-0  88476-4 0  9991,2 54172  53.2175 348.0443 0001554  90.7564 269.3606 15.08846223 65334,6917.861,95.437,540.801,538.651,0.0
54172.0,STARLINK-5117,PAYLOAD,2024-01-02 04:43:10,15.08837744,0.0001612,53.2178,344.1786,82.8288,277.2887,8.57e-05,1.076e-05,0.0,0 STARLINK-5117,1 54172U 22141R   24002.19664809  .00001076  00000-0  85700-4 0  9998,2 54172  53.2178 344.1786 0001612  82.8288 277.2887 15.08837744 65465,6917.887,95.438,540.867,538.637,0.0
54172.0,STARLINK-5117,PAYLOAD,2024-01-02 07:53:56,15.08842504,0.0001659,53.2184,343.5838,81.8271,278.2909,0.00012131,1.643e-05,0.0,0 STARLINK-5117,1 54172U 22141R   24002.32912441  .00001643  00000-0  12131-3 0  9998,2 54172  53.2184 343.5838 0001659  81.8271 278.2909 15.08842504 65483,6917.873,95.437,540.885,538.59,0.0
